H1 CPF  1  HTS 2022  9 12 12  7551 ajisai           NONE
H2  8606101 1500    16908 2022 09 12  0  0  0 2022 09 17  0  0  0   240 1 1  0 0 0
H5  1.0100 
H9 
10 0 59837    720.00000  0    2932178.363   -4193831.699   -5969477.583
10 0 59837    960.00000  0    4067603.618   -3042339.396   -6000683.618
10 0 59837   1200.00000  0    5055344.360   -1786032.192   -5749457.567
10 0 59837   1440.00000  0    5851953.190    -477575.515   -5227512.206
10 0 59837   1680.00000  0    6420973.742     829281.979   -4459291.327
10 0 59837   1920.00000  0    6734669.719    2081922.218   -3480863.328
10 0 59837   2160.00000  0    6775444.546    3230988.068   -2338262.160
10 0 59837   2400.00000  0    6536868.330    4232348.624   -1085335.544
10 0 59837   2640.00000  0    6024230.962    5048810.400     218809.238
10 0 59837   2880.00000  0    5254572.140    5651491.449    1512632.058
10 0 59837   3120.00000  0    4256170.484    6020799.748    2735112.360
10 0 59837   3360.00000  0    3067504.738    6146975.724    3828670.747
10 0 59837   3600.00000  0    1735737.052    6030186.424    4741901.675
10 0 59837   3840.00000  0     314797.954    5680194.144    5431980.076
10 0 59837   4080.00000  0   -1136834.655    5115641.742    5866633.337
10 0 59837   4320.00000  0   -2558560.787    4363017.731    6025596.881
10 0 59837   4560.00000  0   -3890186.909    3455372.203    5901511.224
10 0 59837   4800.00000  0   -5074469.882    2430847.709    5500240.978
10 0 59837   5040.00000  0   -6059587.908    1331080.572    4840602.822
10 0 59837   5280.00000  0   -6801436.464     199529.925    3953507.982
10 0 59837   5520.00000  0   -7265651.500    -920205.653    2880553.269
10 0 59837   5760.00000  0   -7429269.028   -1986030.569    1672110.532
10 0 59837   6000.00000  0   -7281927.236   -2958899.180     384983.804
10 0 59837   6240.00000  0   -6826527.276   -3804207.563    -920263.938
10 0 59837   6480.00000  0   -6079299.211   -4492972.703   -2182183.187
10 0 59837   6720.00000  0   -5069253.541   -5002751.668   -3341362.217
10 0 59837   6960.00000  0   -3837039.628   -5318268.468   -4343247.315
10 0 59837   7200.00000  0   -2433270.578   -5431737.691   -5140715.339
10 0 59837   7440.00000  0    -916398.710   -5342892.999   -5696276.299
10 0 59837   7680.00000  0     649756.748   -5058743.350   -5983809.046
10 0 59837   7920.00000  0    2198719.460   -4593089.905   -5989763.073
10 0 59837   8160.00000  0    3664194.010   -3965841.691   -5713786.108
10 0 59837   8400.00000  0    4982927.545   -3202163.439   -5168754.512
10 0 59837   8640.00000  0    6097479.618   -2331485.734   -4380199.791
10 0 59837   8880.00000  0    6958787.183   -1386411.278   -3385152.130
10 0 59837   9120.00000  0    7528412.666    -401543.328   -2230434.846
10 0 59837   9360.00000  0    7780353.935     587730.180    -970472.496
10 0 59837   9600.00000  0    7702312.178    1546456.486     335290.559
10 0 59837   9840.00000  0    7296334.348    2441298.679    1625235.678
10 0 59837  10080.00000  0    6578783.598    3241630.846    2838528.130
10 0 59837  10320.00000  0    5579637.932    3920504.518    3918027.727
10 0 59837  10560.00000  0    4341160.797    4455456.184    4812998.449
10 0 59837  10800.00000  0    2916023.000    4829138.207    5481480.945
10 0 59837  11040.00000  0    1364979.712    5029765.925    5892221.607
10 0 59837  11280.00000  0    -245776.840    5051383.008    6026080.538
10 0 59837  11520.00000  0   -1847467.886    4893960.700    5876876.563
10 0 59837  11760.00000  0   -3371669.449    4563341.460    5451647.804
10 0 59837  12000.00000  0   -4753234.798    4071037.419    4770326.607
10 0 59837  12240.00000  0   -5933097.596    3433886.071    3864839.006
10 0 59837  12480.00000  0   -6860841.327    2673556.618    2777649.534
10 0 59837  12720.00000  0   -7496914.465    1815911.048    1559805.135
10 0 59837  12960.00000  0   -7814387.153     890228.966     268557.817
10 0 59837  13200.00000  0   -7800154.234     -71693.348   -1035331.453
10 0 59837  13440.00000  0   -7455510.130   -1036546.963   -2290475.679
10 0 59837  13680.00000  0   -6796061.444   -1970584.326   -3437781.590
10 0 59837  13920.00000  0   -5850981.688   -2840726.425   -4423255.558
10 0 59837  14160.00000  0   -4661653.950   -3615661.734   -5200548.837
10 0 59837  14400.00000  0   -3279786.751   -4266903.085   -5733121.110
10 0 59837  14640.00000  0   -1765104.409   -4769774.324   -5995930.383
10 0 59837  14880.00000  0    -182723.624   -5104303.358   -5976585.047
10 0 59837  15120.00000  0    1399671.557   -5255999.769   -5675917.846
10 0 59837  15360.00000  0    2914743.331   -5216494.477   -5107962.152
10 0 59837  15600.00000  0    4298393.784   -4984016.164   -4299329.682
10 0 59837  15840.00000  0    5492525.805   -4563670.147   -3288002.917
10 0 59837  16080.00000  0    6447548.975   -3967490.226   -2121580.687
10 0 59837  16320.00000  0    7124513.604   -3214239.139    -855046.265
10 0 59837  16560.00000  0    7496764.668   -2328939.191     451842.807
10 0 59837  16800.00000  0    7551024.872   -1342133.728    1737414.868
10 0 59837  17040.00000  0    7287848.383    -288897.614    2941045.128
10 0 59837  17280.00000  0    6721424.394     792367.420    4006056.464
10 0 59837  17520.00000  0    5878756.324    1861300.571    4882403.616
10 0 59837  17760.00000  0    4798283.868    2877056.306    5529008.938
10 0 59837  18000.00000  0    3528038.889    3799829.998    5915647.487
10 0 59837  18240.00000  0    2123438.331    4592382.252    6024309.848
10 0 59837  18480.00000  0     644824.181    5221512.889    5849995.430
10 0 59837  18720.00000  0    -845141.443    5659438.725    5400919.594
10 0 59837  18960.00000  0   -2284128.640    5885028.991    4698133.413
10 0 59837  19200.00000  0   -3612742.500    5884849.463    3774568.703
10 0 59837  19440.00000  0   -4776982.388    5653963.665    2673538.853
10 0 59837  19680.00000  0   -5730462.441    5196433.419    1446745.221
10 0 59837  19920.00000  0   -6436292.995    4525467.444     151866.562
10 0 59837  20160.00000  0   -6868529.699    3663185.992   -1150160.170
10 0 59837  20400.00000  0   -7013118.730    2639990.287   -2398032.818
10 0 59837  20640.00000  0   -6868294.162    1493548.991   -3533001.081
10 0 59837  20880.00000  0   -6444417.334     267440.636   -4501653.512
10 0 59837  21120.00000  0   -5763285.861    -990489.699   -5258433.682
10 0 59837  21360.00000  0   -4856966.873   -2229991.198   -5767766.223
10 0 59837  21600.00000  0   -3766229.603   -3400406.808   -6005700.301
10 0 59837  21840.00000  0   -2538667.721   -4452735.624   -5961010.455
10 0 59837  22080.00000  0   -1226598.494   -5341687.258   -5635717.979
10 0 59837  22320.00000  0     115176.966   -6027653.339   -5045014.050
10 0 59837  22560.00000  0    1431668.131   -6478517.387   -4216582.828
10 0 59837  22800.00000  0    2669958.799   -6671221.023   -3189343.198
10 0 59837  23040.00000  0    3781353.134   -6593002.740   -2011651.066
10 0 59837  23280.00000  0    4723317.712   -6242229.534    -739030.958
10 0 59837  23520.00000  0    5461128.650   -5628748.486     568466.422
10 0 59837  23760.00000  0    5969138.250   -4773719.504    1849142.752
10 0 59837  24000.00000  0    6231608.750   -3708926.178    3042612.384
10 0 59837  24240.00000  0    6243086.474   -2475589.227    4092686.730
10 0 59837  24480.00000  0    6008316.319   -1122737.934    4950032.627
10 0 59837  24720.00000  0    5541724.251     294778.816    5574472.754
10 0 59837  24960.00000  0    4866521.207    1718545.457    5936826.496
10 0 59837  25200.00000  0    4013496.989    3088998.079    6020221.833
10 0 59837  25440.00000  0    3019576.316    4347913.966    5820838.817
10 0 59837  25680.00000  0    1926205.465    5440882.304    5348065.250
10 0 59837  25920.00000  0     777633.343    6319665.700    4624062.895
10 0 59837  26160.00000  0    -380852.979    6944360.814    3682761.537
10 0 59837  26400.00000  0   -1504681.506    7285267.378    2568312.257
10 0 59837  26640.00000  0   -2551678.056    7324367.530    1333050.150
10 0 59837  26880.00000  0   -3483615.590    7056325.779      35053.958
10 0 59837  27120.00000  0   -4267572.955    6488945.077   -1264589.584
10 0 59837  27360.00000  0   -4877047.453    5643027.763   -2504689.709
10 0 59837  27600.00000  0   -5292769.045    4551629.278   -3626864.978
10 0 59837  27840.00000  0   -5503193.637    3258745.745   -4578310.406
10 0 59837  28080.00000  0   -5504674.119    1817501.277   -5314281.779
10 0 59837  28320.00000  0   -5301325.347     287923.491   -5800181.376
10 0 59837  28560.00000  0   -4904611.766   -1265589.043   -6013157.083
10 0 59837  28800.00000  0   -4332696.220   -2776999.748   -5943154.136
10 0 59837  29040.00000  0   -3609592.639   -4181456.662   -5593381.942
10 0 59837  29280.00000  0   -2764162.474   -5418100.282   -4980182.954
10 0 59837  29520.00000  0   -1828987.343   -6432748.030   -4132302.930
10 0 59837  29760.00000  0    -839151.462   -7180340.725   -3089582.428
10 0 59837  30000.00000  0     169030.438   -7627034.927   -1901113.434
10 0 59837  30240.00000  0    1159300.296   -7751827.990    -622931.917
10 0 59837  30480.00000  0    2096712.778   -7547614.723     684648.119
10 0 59837  30720.00000  0    2948814.385   -7021609.068    1959924.712
10 0 59837  30960.00000  0    3686702.792   -6195091.139    3142773.755
10 0 59837  31200.00000  0    4285916.822   -5102486.856    4177520.724
10 0 59837  31440.00000  0    4727132.854   -3789852.628    5015565.723
10 0 59837  31680.00000  0    4996664.433   -2312852.049    5617644.525
10 0 59837  31920.00000  0    5086766.207    -734325.302    5955627.116
10 0 59837  32160.00000  0    4995749.498     878432.650    6013782.156
10 0 59837  32400.00000  0    4727923.251    2456561.707    5789467.136
10 0 59837  32640.00000  0    4293379.341    3932579.800    5293231.773
10 0 59837  32880.00000  0    3707634.573    5243274.040    4548334.686
10 0 59837  33120.00000  0    2991134.341    6332431.868    3589687.997
99
